NORAD_CAT_ID,OBJECT_NAME,OBJECT_TYPE,EPOCH,MEAN_MOTION,ECCENTRICITY,INCLINATION,RA_OF_ASC_NODE,ARG_OF_PERICENTER,MEAN_ANOMALY,BSTAR,MEAN_MOTION_DOT,MEAN_MOTION_DDOT,TLE_LINE0,TLE_LINE1,TLE_LINE2,SEMIMAJOR_AXIS,PERIOD,APOGEE,PERIGEE,DECAYED
56453.0,STARLINK-5935,PAYLOAD,2023-10-20 22:38:10,14.98314718,0.0002588,70.0014,180.0431,254.0109,106.0765,-0.00022303,-2.752e-05,0.0,0 STARLINK-5935,1 56453U 23064F   23293.94317889 -.00002752  00000-0 -22303-3 0  9997,2 56453  70.0014 180.0431 0002588 254.0109 106.0765 14.98314718 24814,6950.24,96.108,573.904,570.306,0.0
56453.0,STARLINK-5935,PAYLOAD,2023-10-21 01:50:26,14.98320072,0.0002572,70.0009,179.7054,256.1778,103.9095,-0.00023599,-2.907e-05,0.0,0 STARLINK-5935,1 56453U 23064F   23294.07669710 -.00002907  00000-0 -23599-3 0  9995,2 56453  70.0009 179.7054 0002572 256.1778 103.9095 14.98320072 25196,6950.224,96.108,573.876,570.301,0.0
56453.0,STARLINK-5935,PAYLOAD,2023-10-21 09:51:05,14.98341853,0.0003005,69.9998,178.8632,272.0397,88.0417,-0.00030805,-3.768e-05,0.0,0 STARLINK-5935,1 56453U 23064F   23294.41048600 -.00003768  00000-0 -30805-3 0  9996,2 56453  69.9998 178.8632 0003005 272.0397  88.0417 14.98341853 25245,6950.156,96.106,574.11,569.933,0.0
56453.0,STARLINK-5935,PAYLOAD,2023-10-21 22:40:09,14.9834058,0.0002721,70.0001,177.5154,267.9427,92.1421,0.00010579,1.17e-05,0.0,0 STARLINK-5935,1 56453U 23064F   23294.94455559  .00001170  00000-0  10579-3 0  9998,2 56453  70.0001 177.5154 0002721 267.9427  92.1421 14.98340580 24964,6950.16,96.106,573.916,570.134,0.0
56453.0,STARLINK-5935,PAYLOAD,2023-10-22 01:52:25,14.98340562,0.0002688,70.0001,177.179,269.2589,90.8262,0.00011671,1.3e-05,0.0,0 STARLINK-5935,1 56453U 23064F   23295.07807470  .00001300  00000-0  11671-3 0  9995,2 56453  70.0001 177.1790 0002688 269.2589  90.8262 14.98340562 25343,6950.16,96.106,573.893,570.157,0.0
56453.0,STARLINK-5935,PAYLOAD,2023-10-22 09:53:06,14.98333093,0.0002551,70.0017,176.337,283.7224,76.3651,6.3387e-06,-1.7e-07,0.0,0 STARLINK-5935,1 56453U 23064F   23295.41188316 -.00000017  00000-0  63387-5 0  9992,2 56453  70.0017 176.3370 0002551 283.7224  76.3651 14.98333093 25398,6950.183,96.107,573.821,570.275,0.0
56453.0,STARLINK-5935,PAYLOAD,2023-10-22 19:29:55,14.98316346,0.0003564,70.0,175.3242,269.8375,90.2376,0.00012438,1.391e-05,0.0,0 STARLINK-5935,1 56453U 23064F   23295.81245005  .00001391  00000-0  12438-3 0  9999,2 56453  70.0000 175.3242 0003564 269.8375  90.2376 14.98316346 25452,6950.235,96.108,574.577,569.623,0.0
56453.0,STARLINK-5935,PAYLOAD,2023-10-22 22:42:12,14.9831558,0.0002653,70.0009,174.99,267.0239,93.0616,6.3615e-05,6.66e-06,0.0,0 STARLINK-5935,1 56453U 23064F   23295.94597416  .00000666  00000-0  63615-4 0  9997,2 56453  70.0009 174.9900 0002653 267.0239  93.0616 14.98315580 25114,6950.237,96.108,573.946,570.259,0.0
56453.0,STARLINK-5935,PAYLOAD,2023-10-23 21:08:04,14.98335953,0.0002954,69.9999,172.635,273.074,87.0081,-6.3147e-05,-8.46e-06,0.0,0 STARLINK-5935,1 56453U 23064F   23296.88060645 -.00000846  00000-0 -63147-4 0  9992,2 56453  69.9999 172.6350 0002954 273.0740  87.0081 14.98335953 25611,6950.174,96.107,574.093,569.986,0.0
56453.0,STARLINK-5935,PAYLOAD,2023-10-24 01:56:28,14.98340849,0.000296,69.9997,172.1293,269.7397,90.3423,-3.0652e-05,-4.59e-06,0.0,0 STARLINK-5935,1 56453U 23064F   23297.08088114 -.00000459  00000-0 -30652-4 0  9991,2 56453  69.9997 172.1293 0002960 269.7397  90.3423 14.98340849 25647,6950.159,96.106,574.082,569.967,0.0
56453.0,STARLINK-5935,PAYLOAD,2023-10-25 14:47:33,14.98335059,0.0002853,70.0003,168.2583,272.8097,87.2735,-2.5896e-05,-4.02e-06,0.0,0 STARLINK-5935,1 56453U 23064F   23298.61636254 -.00000402  00000-0 -25896-4 0  9997,2 56453  70.0003 168.2583 0002853 272.8097  87.2735 14.98335059 25872,6950.177,96.107,574.025,570.059,0.0
56453.0,STARLINK-5935,PAYLOAD,2023-10-26 02:00:29,14.98335354,0.0002827,70.0001,167.0807,268.4399,91.6436,-1.2415e-05,-2.41e-06,0.0,0 STARLINK-5935,1 56453U 23064F   23299.08367978 -.00000241  00000-0 -12415-4 0  9997,2 56453  70.0001 167.0807 0002827 268.4399  91.6436 14.98335354 25586,6950.176,96.107,574.006,570.077,0.0
56453.0,STARLINK-5935,PAYLOAD,2023-10-26 22:50:14,14.98335694,0.0002774,70.0,164.8929,265.7833,94.301,1.9412e-05,1.39e-06,0.0,0 STARLINK-5935,1 56453U 23064F   23299.95155575  .00000139  00000-0  19412-4 0  9999,2 56453  70.0000 164.8929 0002774 265.7833  94.3010 14.98335694 25719,6950.175,96.107,573.968,570.112,0.0
56453.0,STARLINK-5935,PAYLOAD,2023-10-27 00:26:22,14.98335958,0.0002776,70.0,164.7246,266.1168,93.9674,2.1786e-05,1.67e-06,0.0,0 STARLINK-5935,1 56453U 23064F   23300.01831527  .00000167  00000-0  21786-4 0  9995,2 56453  70.0000 164.7246 0002776 266.1168  93.9674 14.98335958 26083,6950.174,96.107,573.969,570.11,0.0
56453.0,STARLINK-5935,PAYLOAD,2023-10-27 14:51:34,14.98337805,0.0003245,69.9986,163.2077,270.0049,90.0738,1.4273e-05,7.7e-07,0.0,0 STARLINK-5935,1 56453U 23064F   23300.61915148  .00000077  00000-0  14273-4 0  9996,2 56453  69.9986 163.2077 0003245 270.0049  90.0738 14.98337805 25815,6950.169,96.106,574.289,569.778,0.0
56453.0,STARLINK-5935,PAYLOAD,2023-10-27 21:16:06,14.98344029,0.0002768,69.9994,162.535,269.4278,90.6564,9.7882e-05,1.076e-05,0.0,0 STARLINK-5935,1 56453U 23064F   23300.88618364  .00001076  00000-0  97882-4 0  9992,2 56453  69.9994 162.5350 0002768 269.4278  90.6564 14.98344029 25858,6950.15,96.106,573.938,570.091,0.0
56453.0,STARLINK-5935,PAYLOAD,2023-10-28 00:28:22,14.98347207,0.0002999,69.9991,162.1979,270.0819,89.9996,0.0001064,1.177e-05,0.0,0 STARLINK-5935,1 56453U 23064F   23301.01969953  .00001177  00000-0  10640-3 0  9999,2 56453  69.9991 162.1979 0002999 270.0819  89.9996 14.98347207 26237,6950.14,96.106,574.089,569.92,0.0
56453.0,STARLINK-5935,PAYLOAD,2023-10-28 08:29:03,14.98326293,0.0002734,69.9994,161.3573,265.8592,94.2254,-6.5654e-05,-8.76e-06,0.0,0 STARLINK-5935,1 56453U 23064F   23301.35351709 -.00000876  00000-0 -65654-4 0  9993,2 56453  69.9994 161.3573 0002734 265.8592  94.2254 14.98326293 26281,6950.204,96.107,573.97,570.169,0.0
56453.0,STARLINK-5935,PAYLOAD,2023-10-28 21:18:08,14.98323456,0.0002983,69.9989,160.0108,264.3096,95.7723,-0.00015599,-1.953e-05,0.0,0 STARLINK-5935,1 56453U 23064F   23301.88760288 -.00001953  00000-0 -15599-3 0  9996,2 56453  69.9989 160.0108 0002983 264.3096  95.7723 14.98323456 26009,6950.213,96.107,574.151,570.005,0.0
56453.0,STARLINK-5935,PAYLOAD,2023-10-29 13:19:29,14.98330413,0.0002943,69.9987,158.3277,268.678,91.4042,-0.00014158,-1.782e-05,0.0,0 STARLINK-5935,1 56453U 23064F   23302.55519978 -.00001782  00000-0 -14158-3 0  9999,2 56453  69.9987 158.3277 0002943 268.6780  91.4042 14.98330413 26465,6950.192,96.107,574.102,570.011,0.0
56453.0,STARLINK-5935,PAYLOAD,2023-10-29 21:20:09,14.98336404,0.0002718,69.999,157.4852,266.2259,93.8589,-5.677e-05,-7.7e-06,0.0,0 STARLINK-5935,1 56453U 23064F   23302.88899326 -.00000770  00000-0 -56770-4 0  9996,2 56453  69.9990 157.4852 0002718 266.2259  93.8589 14.98336404 26517,6950.173,96.107,573.927,570.149,0.0
56453.0,STARLINK-5935,PAYLOAD,2023-10-30 21:22:10,14.98327554,0.0002696,69.9993,154.9615,260.7337,99.3517,-3.8265e-06,-1.39e-06,0.0,0 STARLINK-5935,1 56453U 23064F   23303.89039891 -.00000139  00000-0 -38265-5 0  9990,2 56453  69.9993 154.9615 0002696 260.7337  99.3517 14.98327554 26664,6950.2,96.107,573.939,570.192,0.0
56453.0,STARLINK-5935,PAYLOAD,2023-10-31 14:59:39,14.9833071,0.0002775,69.9988,153.1095,267.0275,93.0566,8.1853e-06,5e-08,0.0,0 STARLINK-5935,1 56453U 23064F   23304.62475923  .00000005  00000-0  81853-5 0  9993,2 56453  69.9988 153.1095 0002775 267.0275  93.0566 14.98330710 26416,6950.191,96.107,573.984,570.127,0.0
56453.0,STARLINK-5935,PAYLOAD,2023-10-31 21:24:11,14.98332882,0.0002641,69.9991,152.4361,260.3927,99.6934,-1.6484e-07,-9.5e-07,0.0,0 STARLINK-5935,1 56453U 23064F   23304.89179765 -.00000095  00000-0 -16484-6 0  9997,2 56453  69.9991 152.4361 0002641 260.3927  99.6934 14.98332882 26457,6950.184,96.107,573.885,570.213,0.0
56453.0,STARLINK-5935,PAYLOAD,2023-10-31 23:00:19,14.98333425,0.000268,69.9991,152.2678,262.6109,97.4745,4.9263e-06,-3.4e-07,0.0,0 STARLINK-5935,1 56453U 23064F   23304.95855708 -.00000034  00000-0  49263-5 0  9994,2 56453  69.9991 152.2678 0002680 262.6109  97.4745 14.98333425 26827,6950.182,96.107,573.91,570.185,0.0
56453.0,STARLINK-5935,PAYLOAD,2023-11-01 15:01:40,14.9833091,0.0002812,69.9989,150.5844,269.1158,90.9679,-4.5667e-05,-6.38e-06,0.0,0 STARLINK-5935,1 56453U 23064F   23305.62616094 -.00000638  00000-0 -45667-4 0  9996,2 56453  69.9989 150.5844 0002812 269.1158  90.9679 14.98330910 26564,6950.19,96.107,574.009,570.101,0.0
56453.0,STARLINK-5935,PAYLOAD,2023-11-01 21:26:12,14.98328216,0.0002812,69.9989,149.9113,268.3299,91.7538,1.2555e-05,5.7e-07,0.0,0 STARLINK-5935,1 56453U 23064F   23305.89320026  .00000057  00000-0  12555-4 0  9995,2 56453  69.9989 149.9113 0002812 268.3299  91.7538 14.98328216 26606,6950.198,96.107,574.018,570.109,0.0
56453.0,STARLINK-5935,PAYLOAD,2023-11-02 15:03:40,14.98331883,0.0002818,69.9989,148.0599,269.1571,90.9265,1.8024e-05,1.22e-06,0.0,0 STARLINK-5935,1 56453U 23064F   23306.62755768  .00000122  00000-0  18024-4 0  9992,2 56453  69.9989 148.0599 0002818 269.1571  90.9265 14.98331883 26716,6950.187,96.107,574.011,570.094,0.0
56453.0,STARLINK-5935,PAYLOAD,2023-11-02 21:28:13,14.98333288,0.0002839,69.9989,147.3864,269.1978,90.8856,5.2878e-06,-3e-07,0.0,0 STARLINK-5935,1 56453U 23064F   23306.89459665 -.00000030  00000-0  52878-5 0  9993,2 56453  69.9989 147.3864 0002839 269.1978  90.8856 14.98333288 26757,6950.183,96.107,574.021,570.075,0.0
56453.0,STARLINK-5935,PAYLOAD,2023-11-02 23:04:21,14.9833365,0.0002835,69.9989,147.2181,269.2572,90.8262,9.6351e-06,2.2e-07,0.0,0 STARLINK-5935,1 56453U 23064F   23306.96135616  .00000022  00000-0  96351-5 0  9992,2 56453  69.9989 147.2181 0002835 269.2572  90.8262 14.98333650 27121,6950.182,96.107,574.017,570.076,0.0
